VIGORIDE-3              
1 52760U 22057AE  26068.92149362  .00008532  00000+0  33326-3 0  9991
2 52760  97.6431 206.4459 0009778 111.2279 249.0004 15.26101220210019
STARLINK-32915          
1 63152U 25043W   26067.90914219  .00036119  00000+0  13153-2 0  9991
2 63152  42.9991  27.4604 0001231 246.1784 113.8939 15.27588605 57165
